#dV2023  1 20 10  0  0.00000000    1682       CTS   FIT  GFZ
## 2245 468000.00000000    30.00000000 59964 0.4166666666667
+    1   L64  0  0  0  0  0  0  0  0  0  0  0  0  0  0  0  0
+          0  0  0  0  0  0  0  0  0  0  0  0  0  0  0  0  0
+          0  0  0  0  0  0  0  0  0  0  0  0  0  0  0  0  0
+          0  0  0  0  0  0  0  0  0  0  0  0  0  0  0  0  0
+          0  0  0  0  0  0  0  0  0  0  0  0  0  0  0  0  0
++         0  0  0  0  0  0  0  0  0  0  0  0  0  0  0  0  0
++         0  0  0  0  0  0  0  0  0  0  0  0  0  0  0  0  0
++         0  0  0  0  0  0  0  0  0  0  0  0  0  0  0  0  0
++         0  0  0  0  0  0  0  0  0  0  0  0  0  0  0  0  0
++         0  0  0  0  0  0  0  0  0  0  0  0  0  0  0  0  0
%c L  cc GPS ccc cccc cccc cccc cccc ccccc ccccc ccccc ccccc
%c cc cc ccc ccc cccc cccc cccc cccc ccccc ccccc ccccc ccccc
%f  0.0000000  0.000000000  0.00000000000  0.000000000000000
%f  0.0000000  0.000000000  0.00000000000  0.000000000000000
%i    0    0    0    0      0      0      0      0         0
%i    0    0    0    0      0      0      0      0         0
/* CCCCCCCCCCCCCCCCCCCCCCCCCCCCCCCCCCCCCCCCCCCCCCCCCCCCCCCCCCCCCCCCCCCCCCCCCCCCC
/* C                             GFZ RSO-ORBIT                                 C
/* C DOI: https://doi.org/10.5880/GFZ_ORBIT/RSO/L64_G_v02                      C
/* C                                                                           C
/* C DORIS        RMS: not applicable                                          C
/* C GNSS-E Code  RMS: not applicable                                          C
/* C GNSS-E Phase RMS: not applicable                                          C
/* C GNSS-G Code  RMS:  50.608 [cm]   Obs.acc.:     14113 Obs.eli.:      1113  C
/* C GNSS-G Phase RMS:   4.119 [mm]   Obs.acc.:     14113 Obs.eli.:      1113  C
/* C SLR          RMS:   1.613 [cm]   Obs.acc.:        10 Obs.eli.:         0  C
/* C                                                                           C
/* CCCCCCCCCCCCCCCCCCCCCCCCCCCCCCCCCCCCCCCCCCCCCCCCCCCCCCCCCCCCCCCCCCCCCCCCCCCCC
*  2023  1 20 17 13 30.00000000
PL64  -3320.391697    634.229827   5977.067209  12005.030493
VL64 -65115.241351  12174.386399 -37474.253368 999999.999999
*  2023  1 20 17 14  0.00000000
PL64  -3513.797363    670.822353   5861.357749  12005.490217
VL64 -63809.984949  12217.437079 -39658.348017 999999.999999
*  2023  1 20 17 14 30.00000000
PL64  -3703.181054    707.515105   5739.160559  12005.949615
VL64 -62434.178564  12241.143939 -41799.006087 999999.999999
*  2023  1 20 17 15  0.00000000
PL64  -3888.333445    744.249533   5610.609532  12006.408769
VL64 -60989.384957  12245.167493 -43893.846447 999999.999999
*  2023  1 20 17 15 30.00000000
PL64  -4069.050016    780.966116   5475.845634  12006.868212
VL64 -59477.246057  12229.198197 -45940.535064 999999.999999
*  2023  1 20 17 16  0.00000000
PL64  -4245.131292    817.604448   5335.016759  12007.327200
VL64 -57899.479984  12192.956573 -47936.788156 999999.999999
*  2023  1 20 17 16 30.00000000
PL64  -4416.383060    854.103332   5188.277575  12007.786312
VL64 -56257.880185  12136.192852 -49880.372709 999999.999999
*  2023  1 20 17 17  0.00000000
PL64  -4582.616606    890.400864   5035.789371  12008.246037
VL64 -54554.315939  12058.688410 -51769.110462 999999.999999
*  2023  1 20 17 17 30.00000000
PL64  -4743.648930    926.434534   4877.719879  12008.705449
VL64 -52790.728740  11960.256567 -53600.883343 999999.999999
*  2023  1 20 17 18  0.00000000
PL64  -4899.302963    962.141320   4714.243095  12009.164875
VL64 -50969.128202  11840.742217 -55373.634963 999999.999999
*  2023  1 20 17 18 30.00000000
PL64  -5049.407760    997.457781   4545.539087  12009.624344
VL64 -49091.590503  11700.022329 -57085.371413 999999.999999
*  2023  1 20 17 19  0.00000000
PL64  -5193.798708   1032.320157   4371.793812  12010.083987
VL64 -47160.256964  11538.006875 -58734.163835 999999.999999
*  2023  1 20 17 19 30.00000000
PL64  -5332.317708   1066.664469   4193.198911  12010.543723
VL64 -45177.331288  11354.639263 -60318.151209 999999.999999
*  2023  1 20 17 20  0.00000000
PL64  -5464.813365   1100.426616   4009.951504  12011.003213
VL64 -43145.077115  11149.896688 -61835.541853 999999.999999
*  2023  1 20 17 20 30.00000000
PL64  -5591.141163   1133.542484   3822.253980  12011.462686
VL64 -41065.816641  10923.790982 -63284.615697 999999.999999
*  2023  1 20 17 21  0.00000000
PL64  -5711.163635   1165.948045   3630.313775  12011.921937
VL64 -38941.927996  10676.369021 -64663.727654 999999.999999
*  2023  1 20 17 21 30.00000000
PL64  -5824.750531   1197.579463   3434.343146  12012.381341
VL64 -36775.841877  10407.712528 -65971.309800 999999.999999
*  2023  1 20 17 22  0.00000000
PL64  -5931.778968   1228.373201   3234.558937  12012.841303
VL64 -34570.038976  10117.937908 -67205.873136 999999.999999
*  2023  1 20 17 22 30.00000000
PL64  -6032.133575   1258.266122   3031.182337  12013.301129
VL64 -32327.047293   9807.196148 -68366.009908 999999.999999
*  2023  1 20 17 23  0.00000000
PL64  -6125.706633   1287.195595   2824.438632  12013.760752
VL64 -30049.438648   9475.672887 -69450.395522 999999.999999
*  2023  1 20 17 23 30.00000000
PL64  -6212.398201   1315.099597   2614.556958  12014.220183
VL64 -27739.825430   9123.588747 -70457.789709 999999.999999
*  2023  1 20 17 24  0.00000000
PL64  -6292.116231   1341.916821   2401.770042  12014.679632
VL64 -25400.858109   8751.199503 -71387.037834 999999.999999
*  2023  1 20 17 24 30.00000000
PL64  -6364.776681   1367.586779   2186.313947  12015.139004
VL64 -23035.222961   8358.796010 -72237.072816 999999.999999
*  2023  1 20 17 25  0.00000000
PL64  -6430.303619   1392.049908   1968.427799  12015.598880
VL64 -20645.639197   7946.704114 -73006.917758 999999.999999
*  2023  1 20 17 25 30.00000000
PL64  -6488.629314   1415.247674   1748.353518  12016.059077
VL64 -18234.854532   7515.284281 -73695.688418 999999.999999
*  2023  1 20 17 26  0.00000000
PL64  -6539.694316   1437.122679   1526.335537  12016.519287
VL64 -15805.640430   7064.930912 -74302.593813 999999.999999
*  2023  1 20 17 26 30.00000000
PL64  -6583.447519   1457.618753   1302.620521  12016.979616
VL64 -13360.789134   6596.072094 -74826.936052 999999.999999
*  2023  1 20 17 27  0.00000000
PL64  -6619.846224   1476.681067   1077.457090  12017.439832
VL64 -10903.111218   6109.169681 -75268.111858 999999.999999
*  2023  1 20 17 27 30.00000000
PL64  -6648.856184   1494.256222    851.095526  12017.899929
VL64  -8435.431445   5604.718794 -75625.614679 999999.999999
*  2023  1 20 17 28  0.00000000
PL64  -6670.451644   1510.292357    623.787487  12018.360039
VL64  -5960.583795   5083.246589 -75899.035113 999999.999999
*  2023  1 20 17 28 30.00000000
PL64  -6684.615359   1524.739237    395.785714  12018.819967
VL64  -3481.408051   4545.311195 -76088.060141 999999.999999
*  2023  1 20 17 29  0.00000000
PL64  -6691.338608   1537.548349    167.343742  12019.279718
VL64  -1000.747535   3991.501284 -76192.473386 999999.999999
*  2023  1 20 17 29 30.00000000
PL64  -6690.621203   1548.672988    -61.284393  12019.739410
VL64   1478.554175   3422.435760 -76212.156543 999999.999999
*  2023  1 20 17 30  0.00000000
PL64  -6682.471481   1558.068355   -289.844445  12020.198968
VL64   3953.658046   2838.763127 -76147.089964 999999.999999
*  2023  1 20 17 30 30.00000000
PL64  -6666.906283   1565.691636   -518.082258  12020.658575
VL64   6421.733981   2241.160473 -75997.351721 999999.999999
*  2023  1 20 17 31  0.00000000
PL64  -6643.950923   1571.502092   -745.744055  12021.118136
VL64   8879.963826   1630.332171 -75763.116662 999999.999999
*  2023  1 20 17 31 30.00000000
PL64  -6613.639150   1575.461133   -972.576729  12021.577539
VL64  11325.544076   1007.008641 -75444.655898 999999.999999
*  2023  1 20 17 32  0.00000000
PL64  -6576.013096   1577.532403  -1198.328128  12022.036947
VL64  13755.687949    371.945942 -75042.336445 999999.999999
*  2023  1 20 17 32 30.00000000
PL64  -6531.123226   1577.681851  -1422.747350  12022.496758
VL64  16167.628703   -274.073828 -74556.622893 999999.999999
*  2023  1 20 17 33  0.00000000
PL64  -6479.028268   1575.877810  -1645.585030  12022.956303
VL64  18558.626228   -930.243353 -73988.077208 999999.999999
*  2023  1 20 17 33 30.00000000
PL64  -6419.795124   1572.091071  -1866.593634  12023.415916
VL64  20925.970253  -1595.732122 -73337.355775 999999.999999
*  2023  1 20 17 34  0.00000000
PL64  -6353.498780   1566.294950  -2085.527738  12023.875517
VL64  23266.981597  -2269.687522 -72605.209917 999999.999999
*  2023  1 20 17 34 30.00000000
PL64  -6280.222211   1558.465351  -2302.144313  12024.335072
VL64  25579.017476  -2951.236707 -71792.485916 999999.999999
*  2023  1 20 17 35  0.00000000
PL64  -6200.056255   1548.580826  -2516.203010  12024.794570
VL64  27859.475051  -3639.488906 -70900.121794 999999.999999
*  2023  1 20 17 35 30.00000000
PL64  -6113.099501   1536.622623  -2727.466429  12025.254866
VL64  30105.793378  -4333.535806 -69929.146053 999999.999999
*  2023  1 20 17 36  0.00000000
PL64  -6019.458151   1522.574741  -2935.700390  12025.715351
VL64  32315.457603  -5032.452210 -68880.676601 999999.999999
*  2023  1 20 17 36 30.00000000
PL64  -5919.245877   1506.423980  -3140.674197  12026.175964
VL64  34486.002269  -5735.297781 -67755.918114 999999.999999
*  2023  1 20 17 37  0.00000000
PL64  -5812.583672   1488.159979  -3342.160896  12026.636281
VL64  36615.013520  -6441.118309 -66556.160212 999999.999999
*  2023  1 20 17 37 30.00000000
PL64  -5699.599691   1467.775261  -3539.937529  12027.096368
VL64  38700.131773  -7148.946799 -65282.775741 999999.999999
*  2023  1 20 17 38  0.00000000
PL64  -5580.429080   1445.265268  -3733.785375  12027.556442
VL64  40739.054056  -7857.804874 -63937.218835 999999.999999
*  2023  1 20 17 38 30.00000000
PL64  -5455.213809   1420.628391  -3923.490200  12028.016171
VL64  42729.536260  -8566.704256 -62521.023300 999999.999999
EOF
